[
  {
    "OBJECT_NAME": "STARLINK-11402 [DTC]",
    "OBJECT_ID": "24204A",
    "EPOCH": "2025-11-11T03:51:19.188864",
    "MEAN_MOTION": 15.6972071,
    "ECCENTRICITY": 0.0001146,
    "INCLINATION": 53.159,
    "RA_OF_ASC_NODE": 220.9316,
    "ARG_OF_PERICENTER": 113.1556,
    "MEAN_ANOMALY": 246.9583,
    "EPHEMERIS_TYPE": 0,
    "CLASSIFICATION_TYPE": "U",
    "NORAD_CAT_ID": 61874,
    "ELEMENT_SET_NO": 999,
    "REV_AT_EPOCH": 5888,
    "BSTAR": 2.3936000000000003e-06,
    "MEAN_MOTION_DOT": -2.99e-06,
    "MEAN_MOTION_DDOT": 0.0,
    "TLE_LINE1": "1 61874U 24204A   25315.16063876 -.00000299  00000+0  23936-5 0  9999",
    "TLE_LINE2": "2 61874  53.1590 220.9316 0001146 113.1556 246.9583 15.69720710 58882",
    "COMMENT": "Grouped by shell and plane from TLE"
  },
  {
    "OBJECT_NAME": "STARLINK-11316 [DTC]",
    "OBJECT_ID": "24204B",
    "EPOCH": "2025-11-11T03:58:14.124000",
    "MEAN_MOTION": 15.6971205,
    "ECCENTRICITY": 0.0001031,
    "INCLINATION": 53.1594,
    "RA_OF_ASC_NODE": 220.2092,
    "ARG_OF_PERICENTER": 71.0129,
    "MEAN_ANOMALY": 289.1001,
    "EPHEMERIS_TYPE": 0,
    "CLASSIFICATION_TYPE": "U",
    "NORAD_CAT_ID": 61875,
    "ELEMENT_SET_NO": 999,
    "REV_AT_EPOCH": 5830,
    "BSTAR": 2.1966e-05,
    "MEAN_MOTION_DOT": 2.073e-05,
    "MEAN_MOTION_DDOT": 0.0,
    "TLE_LINE1": "1 61875U 24204B   25315.16544125  .00002073  00000+0  21966-4 0  9992",
    "TLE_LINE2": "2 61875  53.1594 220.2092 0001031  71.0129 289.1001 15.69712050 58301",
    "COMMENT": "Grouped by shell and plane from TLE"
  },
  {
    "OBJECT_NAME": "STARLINK-11401 [DTC]",
    "OBJECT_ID": "24204C",
    "EPOCH": "2025-11-11T03:44:15.324288",
    "MEAN_MOTION": 15.69720907,
    "ECCENTRICITY": 9.96e-05,
    "INCLINATION": 53.1592,
    "RA_OF_ASC_NODE": 220.8803,
    "ARG_OF_PERICENTER": 90.7503,
    "MEAN_ANOMALY": 269.3629,
    "EPHEMERIS_TYPE": 0,
    "CLASSIFICATION_TYPE": "U",
    "NORAD_CAT_ID": 61876,
    "ELEMENT_SET_NO": 999,
    "REV_AT_EPOCH": 5829,
    "BSTAR": 0.0,
    "MEAN_MOTION_DOT": -7.91e-06,
    "MEAN_MOTION_DDOT": 0.0,
    "TLE_LINE1": "1 61876U 24204C   25315.15573292 -.00000791  00000+0 -16715-5 0  9993",
    "TLE_LINE2": "2 61876  53.1592 220.8803 0000996  90.7503 269.3629 15.69720907 58293",
    "COMMENT": "Grouped by shell and plane from TLE"
  },
  {
    "OBJECT_NAME": "STARLINK-11321 [DTC]",
    "OBJECT_ID": "24204D",
    "EPOCH": "2025-11-11T03:37:11.583264",
    "MEAN_MOTION": 15.69715565,
    "ECCENTRICITY": 0.0001135,
    "INCLINATION": 53.1604,
    "RA_OF_ASC_NODE": 220.85,
    "ARG_OF_PERICENTER": 56.9019,
    "MEAN_ANOMALY": 303.2108,
    "EPHEMERIS_TYPE": 0,
    "CLASSIFICATION_TYPE": "U",
    "NORAD_CAT_ID": 61877,
    "ELEMENT_SET_NO": 999,
    "REV_AT_EPOCH": 5828,
    "BSTAR": 2.8235e-06,
    "MEAN_MOTION_DOT": -2.47e-06,
    "MEAN_MOTION_DDOT": 0.0,
    "TLE_LINE1": "1 61877U 24204D   25315.15082851 -.00000247  00000+0  28235-5 0  9995",
    "TLE_LINE2": "2 61877  53.1604 220.8500 0001135  56.9019 303.2108 15.69715565 58287",
    "COMMENT": "Grouped by shell and plane from TLE"
  },
  {
    "OBJECT_NAME": "STARLINK-11314 [DTC]",
    "OBJECT_ID": "24204E",
    "EPOCH": "2025-11-11T03:30:07.907040",
    "MEAN_MOTION": 15.69712331,
    "ECCENTRICITY": 0.0001429,
    "INCLINATION": 53.1588,
    "RA_OF_ASC_NODE": 220.8139,
    "ARG_OF_PERICENTER": 59.0671,
    "MEAN_ANOMALY": 301.0487,
    "EPHEMERIS_TYPE": 0,
    "CLASSIFICATION_TYPE": "U",
    "NORAD_CAT_ID": 61878,
    "ELEMENT_SET_NO": 999,
    "REV_AT_EPOCH": 5829,
    "BSTAR": 6.488000000000001e-06,
    "MEAN_MOTION_DOT": 1.97e-06,
    "MEAN_MOTION_DDOT": 0.0,
    "TLE_LINE1": "1 61878U 24204E   25315.14592485  .00000197  00000+0  64880-5 0  9993",
    "TLE_LINE2": "2 61878  53.1588 220.8139 0001429  59.0671 301.0487 15.69712331 58296",
    "COMMENT": "Grouped by shell and plane from TLE"
  },
  {
    "OBJECT_NAME": "STARLINK-11324 [DTC]",
    "OBJECT_ID": "24204F",
    "EPOCH": "2025-11-11T00:19:41.761920",
    "MEAN_MOTION": 15.69715438,
    "ECCENTRICITY": 0.0001174,
    "INCLINATION": 53.1593,
    "RA_OF_ASC_NODE": 221.409,
    "ARG_OF_PERICENTER": 91.2862,
    "MEAN_ANOMALY": 268.829,
    "EPHEMERIS_TYPE": 0,
    "CLASSIFICATION_TYPE": "U",
    "NORAD_CAT_ID": 61879,
    "ELEMENT_SET_NO": 999,
    "REV_AT_EPOCH": 5827,
    "BSTAR": 0.0,
    "MEAN_MOTION_DOT": -1.019e-05,
    "MEAN_MOTION_DDOT": 0.0,
    "TLE_LINE1": "1 61879U 24204F   25315.01367780 -.00001019  00000+0 -35499-5 0  9998",
    "TLE_LINE2": "2 61879  53.1593 221.4090 0001174  91.2862 268.8290 15.69715438 58274",
    "COMMENT": "Grouped by shell and plane from TLE"
  },
  {
    "OBJECT_NAME": "STARLINK-11328 [DTC]",
    "OBJECT_ID": "24204G",
    "EPOCH": "2025-11-11T00:12:39.517344",
    "MEAN_MOTION": 15.69631024,
    "ECCENTRICITY": 0.0001717,
    "INCLINATION": 53.1601,
    "RA_OF_ASC_NODE": 221.3739,
    "ARG_OF_PERICENTER": 100.2199,
    "MEAN_ANOMALY": 259.9013,
    "EPHEMERIS_TYPE": 0,
    "CLASSIFICATION_TYPE": "U",
    "NORAD_CAT_ID": 61880,
    "ELEMENT_SET_NO": 999,
    "REV_AT_EPOCH": 5827,
    "BSTAR": 0.00013949,
    "MEAN_MOTION_DOT": 0.00016288,
    "MEAN_MOTION_DDOT": 0.0,
    "TLE_LINE1": "1 61880U 24204G   25315.00879071  .00016288  00000+0  13949-3 0  9996",
    "TLE_LINE2": "2 61880  53.1601 221.3739 0001717 100.2199 259.9013 15.69631024 58274",
    "COMMENT": "Grouped by shell and plane from TLE"
  },
  {
    "OBJECT_NAME": "STARLINK-11329 [DTC]",
    "OBJECT_ID": "24204H",
    "EPOCH": "2025-11-11T03:08:56.321952",
    "MEAN_MOTION": 15.69710786,
    "ECCENTRICITY": 0.0001266,
    "INCLINATION": 53.1604,
    "RA_OF_ASC_NODE": 220.715,
    "ARG_OF_PERICENTER": 98.3819,
    "MEAN_ANOMALY": 261.7343,
    "EPHEMERIS_TYPE": 0,
    "CLASSIFICATION_TYPE": "U",
    "NORAD_CAT_ID": 61881,
    "ELEMENT_SET_NO": 999,
    "REV_AT_EPOCH": 5829,
    "BSTAR": 7.181300000000001e-06,
    "MEAN_MOTION_DOT": 2.81e-06,
    "MEAN_MOTION_DDOT": 0.0,
    "TLE_LINE1": "1 61881U 24204H   25315.13120743  .00000281  00000+0  71813-5 0  9998",
    "TLE_LINE2": "2 61881  53.1604 220.7150 0001266  98.3819 261.7343 15.69710786 58295",
    "COMMENT": "Grouped by shell and plane from TLE"
  },
  {
    "OBJECT_NAME": "STARLINK-11398 [DTC]",
    "OBJECT_ID": "24204J",
    "EPOCH": "2025-11-11T03:01:52.885056",
    "MEAN_MOTION": 15.69701761,
    "ECCENTRICITY": 0.0001387,
    "INCLINATION": 53.1607,
    "RA_OF_ASC_NODE": 220.6813,
    "ARG_OF_PERICENTER": 83.653,
    "MEAN_ANOMALY": 276.4646,
    "EPHEMERIS_TYPE": 0,
    "CLASSIFICATION_TYPE": "U",
    "NORAD_CAT_ID": 61882,
    "ELEMENT_SET_NO": 999,
    "REV_AT_EPOCH": 5829,
    "BSTAR": 3.3856e-05,
    "MEAN_MOTION_DOT": 3.513e-05,
    "MEAN_MOTION_DDOT": 0.0,
    "TLE_LINE1": "1 61882U 24204J   25315.12630654  .00003513  00000+0  33856-4 0  9990",
    "TLE_LINE2": "2 61882  53.1607 220.6813 0001387  83.6530 276.4646 15.69701761 58297",
    "COMMENT": "Grouped by shell and plane from TLE"
  },
  {
    "OBJECT_NAME": "STARLINK-11383 [DTC]",
    "OBJECT_ID": "24204K",
    "EPOCH": "2025-11-11T02:47:45.361536",
    "MEAN_MOTION": 15.69690635,
    "ECCENTRICITY": 0.0001467,
    "INCLINATION": 53.1583,
    "RA_OF_ASC_NODE": 220.6165,
    "ARG_OF_PERICENTER": 68.5517,
    "MEAN_ANOMALY": 291.5657,
    "EPHEMERIS_TYPE": 0,
    "CLASSIFICATION_TYPE": "U",
    "NORAD_CAT_ID": 61883,
    "ELEMENT_SET_NO": 999,
    "REV_AT_EPOCH": 5829,
    "BSTAR": 4.6885e-05,
    "MEAN_MOTION_DOT": 5.09e-05,
    "MEAN_MOTION_DDOT": 0.0,
    "TLE_LINE1": "1 61883U 24204K   25315.11649724  .00005090  00000+0  46885-4 0  9996",
    "TLE_LINE2": "2 61883  53.1583 220.6165 0001467  68.5517 291.5657 15.69690635 58294",
    "COMMENT": "Grouped by shell and plane from TLE"
  },
  {
    "OBJECT_NAME": "STARLINK-11359 [DTC]",
    "OBJECT_ID": "24204L",
    "EPOCH": "2025-11-10T23:51:26.589600",
    "MEAN_MOTION": 15.69715603,
    "ECCENTRICITY": 0.0001307,
    "INCLINATION": 53.1596,
    "RA_OF_ASC_NODE": 221.2759,
    "ARG_OF_PERICENTER": 102.0584,
    "MEAN_ANOMALY": 258.0581,
    "EPHEMERIS_TYPE": 0,
    "CLASSIFICATION_TYPE": "U",
    "NORAD_CAT_ID": 61884,
    "ELEMENT_SET_NO": 999,
    "REV_AT_EPOCH": 5827,
    "BSTAR": 4.2832e-06,
    "MEAN_MOTION_DOT": -7e-07,
    "MEAN_MOTION_DDOT": 0.0,
    "TLE_LINE1": "1 61884U 24204L   25314.99405775 -.00000070  00000+0  42832-5 0  9991",
    "TLE_LINE2": "2 61884  53.1596 221.2759 0001307 102.0584 258.0581 15.69715603 58271",
    "COMMENT": "Grouped by shell and plane from TLE"
  },
  {
    "OBJECT_NAME": "STARLINK-11301 [DTC]",
    "OBJECT_ID": "24204M",
    "EPOCH": "2025-11-11T04:12:21.956832",
    "MEAN_MOTION": 15.69716634,
    "ECCENTRICITY": 0.0001104,
    "INCLINATION": 53.1582,
    "RA_OF_ASC_NODE": 220.2683,
    "ARG_OF_PERICENTER": 45.0628,
    "MEAN_ANOMALY": 315.048,
    "EPHEMERIS_TYPE": 0,
    "CLASSIFICATION_TYPE": "U",
    "NORAD_CAT_ID": 61885,
    "ELEMENT_SET_NO": 999,
    "REV_AT_EPOCH": 5830,
    "BSTAR": 0.0,
    "MEAN_MOTION_DOT": -8.15e-06,
    "MEAN_MOTION_DDOT": 0.0,
    "TLE_LINE1": "1 61885U 24204M   25315.17525413 -.00000815  00000+0 -18710-5 0  9991",
    "TLE_LINE2": "2 61885  53.1582 220.2683 0001104  45.0628 315.0480 15.69716634 58303",
    "COMMENT": "Grouped by shell and plane from TLE"
  },
  {
    "OBJECT_NAME": "STARLINK-11351 [DTC]",
    "OBJECT_ID": "24204N",
    "EPOCH": "2025-11-11T04:05:17.958336",
    "MEAN_MOTION": 15.69713228,
    "ECCENTRICITY": 8.61e-05,
    "INCLINATION": 53.1582,
    "RA_OF_ASC_NODE": 220.2348,
    "ARG_OF_PERICENTER": 98.3175,
    "MEAN_ANOMALY": 261.7941,
    "EPHEMERIS_TYPE": 0,
    "CLASSIFICATION_TYPE": "U",
    "NORAD_CAT_ID": 61886,
    "ELEMENT_SET_NO": 999,
    "REV_AT_EPOCH": 5830,
    "BSTAR": 2.7818e-06,
    "MEAN_MOTION_DOT": -2.51e-06,
    "MEAN_MOTION_DDOT": 0.0,
    "TLE_LINE1": "1 61886U 24204N   25315.17034674 -.00000251  00000+0  27818-5 0  9998",
    "TLE_LINE2": "2 61886  53.1582 220.2348 0000861  98.3175 261.7941 15.69713228 58304",
    "COMMENT": "Grouped by shell and plane from TLE"
  }
]